{
  "norad_id": 68114,
  "name": "STARLINK-36229",
  "history": [
    {
      "epoch": "2026-03-28T21:19:54.412608Z",
      "apogee_km": 344.83020949032016,
      "perigee_km": 343.3236269069739,
      "latitude_deg": -6.798826119925001e-05,
      "longitude_deg": -97.28721160710606,
      "height_km": 347.1567772842559,
      "semi_major_axis_km": 6722.213918198647,
      "eccentricity": 0.00011206,
      "inclination_deg": 97.2848,
      "raan_deg": 48.9923,
      "arg_perigee_deg": 83.3911,
      "mean_anomaly_deg": 276.7481,
      "mean_motion_rev_day": 15.75194798
    },
    {
      "epoch": "2026-03-29T03:25:49.389600Z",
      "apogee_km": 345.2085507057709,
      "perigee_km": 342.47404993320197,
      "latitude_deg": -8.611420966109981e-05,
      "longitude_deg": 171.2503591300041,
      "height_km": 347.3934787827065,
      "semi_major_axis_km": 6721.978300319486,
      "eccentricity": 0.0002034,
      "inclination_deg": 97.2847,
      "raan_deg": 49.2594,
      "arg_perigee_deg": 106.434,
      "mean_anomaly_deg": 253.7148,
      "mean_motion_rev_day": 15.75277619
    },
    {
      "epoch": "2026-03-29T08:00:16.485696Z",
      "apogee_km": 345.5282352001341,
      "perigee_km": 342.69964644925403,
      "latitude_deg": 7.099412888195319e-06,
      "longitude_deg": 102.64929153204848,
      "height_km": 346.87221052911224,
      "semi_major_axis_km": 6722.250940824694,
      "eccentricity": 0.00021039,
      "inclination_deg": 97.2847,
      "raan_deg": 49.4591,
      "arg_perigee_deg": 73.2895,
      "mean_anomaly_deg": 286.8601,
      "mean_motion_rev_day": 15.75181785
    },
    {
      "epoch": "2026-03-31T20:00:01.999008Z",
      "apogee_km": 375.9138833920115,
      "perigee_km": 373.59494048115175,
      "latitude_deg": 75.55584712303869,
      "longitude_deg": -106.72747972726492,
      "height_km": 386.52539497132113,
      "semi_major_axis_km": 6752.891411936581,
      "eccentricity": 0.0001717,
      "inclination_deg": 97.2855,
      "raan_deg": 52.0609,
      "arg_perigee_deg": 89.648,
      "mean_anomaly_deg": 347.7757,
      "mean_motion_rev_day": 15.64473145
    },
    {
      "epoch": "2026-04-01T20:00:01.999008Z",
      "apogee_km": 388.060766609603,
      "perigee_km": 385.7877060341989,
      "latitude_deg": -61.156249856949344,
      "longitude_deg": -63.762993513306874,
      "height_km": 411.5862480803427,
      "semi_major_axis_km": 6765.061236321901,
      "eccentricity": 0.000168,
      "inclination_deg": 97.2848,
      "raan_deg": 53.091,
      "arg_perigee_deg": 99.3869,
      "mean_anomaly_deg": 198.8271,
      "mean_motion_rev_day": 15.60253494
    },
    {
      "epoch": "2026-04-02T20:00:01.999008Z",
      "apogee_km": 400.41179920032755,
      "perigee_km": 397.8486367384912,
      "latitude_deg": 35.85400006878736,
      "longitude_deg": 108.20125556539126,
      "height_km": 403.3108437604256,
      "semi_major_axis_km": 6777.267217969409,
      "eccentricity": 0.0001891,
      "inclination_deg": 97.2856,
      "raan_deg": 54.1145,
      "arg_perigee_deg": 92.062,
      "mean_anomaly_deg": 51.8075,
      "mean_motion_rev_day": 15.56040325
    },
    {
      "epoch": "2026-04-02T22:00:01.999584Z",
      "apogee_km": 401.27464354286803,
      "perigee_km": 398.84344018657157,
      "latitude_deg": -69.22922331145361,
      "longitude_deg": 53.346893406178,
      "height_km": 427.02065922273505,
      "semi_major_axis_km": 6778.1960418647195,
      "eccentricity": 0.00017934,
      "inclination_deg": 97.2855,
      "raan_deg": 54.1984,
      "arg_perigee_deg": 106.524,
      "mean_anomaly_deg": 143.7867,
      "mean_motion_rev_day": 15.55720497
    },
    {
      "epoch": "2026-04-03T20:00:01.999008Z",
      "apogee_km": 412.74869454192776,
      "perigee_km": 410.1740788336965,
      "latitude_deg": -25.668420598732656,
      "longitude_deg": -73.53426638850499,
      "height_km": 422.04532657288877,
      "semi_major_axis_km": 6789.598386687812,
      "eccentricity": 0.0001896,
      "inclination_deg": 97.2856,
      "raan_deg": 55.1331,
      "arg_perigee_deg": 104.9224,
      "mean_anomaly_deg": 229.4612,
      "mean_motion_rev_day": 15.51803164
    },
    {
      "epoch": "2026-04-04T20:00:01.999008Z",
      "apogee_km": 423.9193575895679,
      "perigee_km": 421.3187484748887,
      "latitude_deg": 29.57583384668881,
      "longitude_deg": 107.12602358655472,
      "height_km": 426.2654450992074,
      "semi_major_axis_km": 6800.756053032228,
      "eccentricity": 0.0001912,
      "inclination_deg": 97.2852,
      "raan_deg": 56.1446,
      "arg_perigee_deg": 69.4286,
      "mean_anomaly_deg": 80.762,
      "mean_motion_rev_day": 15.4798578
    },
    {
      "epoch": "2026-04-05T14:00:03.000384Z",
      "apogee_km": 432.8124192546711,
      "perigee_km": 430.7514653859671,
      "latitude_deg": 2.7337230147569715,
      "longitude_deg": 12.653012976024172,
      "height_km": 434.7549291631292,
      "semi_major_axis_km": 6809.918942320319,
      "eccentricity": 0.00015132,
      "inclination_deg": 97.2851,
      "raan_deg": 56.9002,
      "arg_perigee_deg": 101.7538,
      "mean_anomaly_deg": 261.1262,
      "mean_motion_rev_day": 15.4486256
    }
  ]
}